EUTELSAT 7A             
1 28187U 04008A   25279.52159105  .00000109  00000+0  00000+0 0  9999
2 28187   5.1812  75.0186 0001220 154.0382 194.9773  1.00273751 78809
EUTELSAT 174A           
1 28924U 05052A   25279.54975294  .00000015  00000+0  00000+0 0  9991
2 28924   3.5717  79.6565 0006319 118.1499 189.5805  1.00271278 49782
EUTELSAT HOTBIRD 13B    
1 29270U 06032A   25279.57250541  .00000159  00000+0  00000+0 0  9998
2 29270   1.0005  84.9833 0003852 104.5943  65.1042  1.00271287 44764
EUTELSAT HOTBIRD 13C    
1 33459U 08065A   25279.34934279 -.00000096  00000+0  00000+0 0  9993
2 33459   2.2920  82.1796 0005449 135.9384 270.4341  1.00271526 44800
EUTELSAT 36B            
1 36101U 09065A   25279.57597208  .00000000  00000+0  00000+0 0  9997
2 36101   0.0277  25.0272 0006201 179.8753  68.4135  1.00272316 58165
EUTELSAT KA-SAT 9A      
1 37258U 10069A   25279.35367615  .00000064  00000+0  00000+0 0  9990
2 37258   0.0581 322.7751 0002803 206.0284 342.8208  1.00273140 41463
EUTELSAT 7 WEST A       
1 37816U 11051A   25279.35038279 -.00000058  00000+0  00000+0 0  9997
2 37816   0.0664  16.4991 0006507 179.4130 298.2017  1.00271483 51344
EUTELSAT 16A            
1 37836U 11057A   25279.56912538  .00000107  00000+0  00000+0 0  9991
2 37836   0.0671  15.8773 0005405 181.7340  38.7668  1.00274119  4784
